OSCAR 7 (AO-7)          
1 07530U 74089B   17122.90962410 -.00000023  00000-0  13186-3 0  9995
2 07530 101.6263  92.4941 0012462  51.2238  12.6782 12.53626685942950
UOSAT 2 (UO-11)         
1 14781U 84021B   17122.68808417  .00000095  00000-0  17947-4 0  9997
2 14781  97.7023 170.0670 0008323 359.6533   0.4674 14.82887727762608
LUSAT (LO-19)           
1 20442U 90005G   17122.82409106  .00000008  00000-0  18894-4 0  9991
2 20442  98.5733  59.8053 0010625 283.7571  76.2430 14.32857717425060
EYESAT-1 (AO-27)        
1 22825U 93061C   17122.71223248  .00000024  00000-0  26785-4 0  9998
2 22825  98.8079  87.7457 0009516 102.5314 257.6933 14.29994356230638
ITAMSAT (IO-26)         
1 22826U 93061D   17122.89363365  .00000024  00000-0  26717-4 0  9998
2 22826  98.8022  88.0165 0010079  93.6323 266.6012 14.30322797230851
RADIO ROSTO (RS-15)     
1 23439U 94085A   17122.78893712 -.00000024  00000-0  52857-3 0  9992
2 23439  64.8156 292.5952 0167211 253.5834 205.7178 11.27565539920291
JAS-2 (FO-29)           
1 24278U 96046B   17122.91060404 -.00000019  00000-0  13414-4 0  9993
2 24278  98.5704  12.1812 0351382  94.6954 269.4400 13.53075863 22507
TECHSAT 1B (GO-32)      
1 25397U 98043D   17122.79193276  .00000001  00000-0  19250-4 0  9999
2 25397  98.6067  66.0940 0002260 111.0179 249.1242 14.23620811977116
ISS (ZARYA)             
1 25544U 98067A   17122.90753764  .00002705  00000-0  48402-4 0  9990
2 25544  51.6423 263.9933 0005861 117.9260 333.2047 15.53953763 54710
PCSAT (NO-44)           
1 26931U 01043C   17122.87050467 -.00000009  00000-0  28454-4 0  9996
2 26931  67.0516 208.1187 0007945 272.1655  87.8536 14.30458006813794
SAUDISAT 1C (SO-50)     
1 27607U 02058C   17122.79034946  .00000067  00000-0  30198-4 0  9990
2 27607  64.5553 264.2831 0031567 119.5446 240.8809 14.75317421772282
CUTE-1 (CO-55)          
1 27844U 03031E   17122.90322074  .00000068  00000-0  50375-4 0  9990
2 27844  98.6905 132.5672 0010879 115.5716 244.6587 14.22032729717846
CUBESAT XI-IV (CO-57)   
1 27848U 03031J   17122.96110875  .00000049  00000-0  42341-4 0  9997
2 27848  98.7000 132.8637 0010687 123.8160 236.4036 14.21647863717740
MOZHAYETS 4 (RS-22)     
1 27939U 03042A   17122.95046976  .00000146  00000-0  34732-4 0  9992
2 27939  97.9323 269.1673 0013242  16.1282  95.2545 14.66555552726549
CUBESAT XI-V (CO-58)    
1 28895U 05043F   17122.43024923  .00000190  00000-0  45478-4 0  9996
2 28895  97.8598 286.8447 0015454 290.0042  69.9497 14.63381807613796
CUTE-1.7+APD II (CO-65) 
1 32785U 08021C   17122.71342299  .00000303  00000-0  38773-4 0  9994
2 32785  97.5701 149.0545 0012099 324.9232  35.1187 14.87860766488064
DELFI-C3 (DO-64)        
1 32789U 08021G   17122.74113280  .00001139  00000-0  85122-4 0  9995
2 32789  97.5631 181.9252 0011084 253.1602 106.8409 15.04726210489932
SEEDS II (CO-66)        
1 32791U 08021J   17122.65140418  .00000389  00000-0  45561-4 0  9990
2 32791  97.5674 153.2181 0012117 308.9605  51.0533 14.90181928488286
YUBILEINY (RS-30)       
1 32953U 08025A   17122.88991350  .00000037  00000-0  19826-3 0  9992
2 32953  82.5014 267.8168 0018996  27.4667 332.7413 12.43076307405798
PRISM (HITOMI)          
1 33493U 09002B   17122.93777908  .00000688  00000-0  67606-4 0  9997
2 33493  98.1747   3.4494 0014294 230.6147 129.3807 14.95603139449016
KKS-1 (KISEKI)          
1 33499U 09002H   17122.90304813  .00000169  00000-0  33054-4 0  9995
2 33499  98.3273 286.9723 0009819 151.6414 208.5330 14.75173681444262
SWISSCUBE               
1 35932U 09051B   17122.36763797  .00000211  00000-0  58723-4 0  9991
2 35932  98.4884 260.0703 0008309  40.3958 319.7855 14.55997174403616
BEESAT                  
1 35933U 09051C   17122.90748337  .00000160  00000-0  47134-4 0  9992
2 35933  98.4922 261.9022 0006735  52.7938 307.3873 14.56118708403757
ITUPSAT 1               
1 35935U 09051E   17122.32051161  .00000145  00000-0  44414-4 0  9993
2 35935  98.5032 261.5578 0008942  45.8637 314.3294 14.55313703403537
XIWANG-1 (HOPE-1)       
1 36122U 09072B   17122.88893262 -.00000037  00000-0  13575-4 0  9997
2 36122 100.1045 151.2246 0007215 345.3504  14.7400 13.16339248354566
TISAT 1                 
1 36799U 10035E   17122.89266179  .00000632  00000-0  70991-4 0  9995
2 36799  98.0552 244.7208 0013816 114.1000 246.1664 14.90346431368830
JUGNU                   
1 37839U 11058B   17122.02977705  .00000323  00000-0  30574-4 0  9996
2 37839  19.9624  10.3497 0018856  35.0412  95.0980 14.12580804287056
SRMSAT                  
1 37841U 11058D   17122.01889757  .00000312  00000-0  26126-4 0  9993
2 37841  19.9726  51.1468 0011685 293.9582 156.5021 14.10572534286663
M-CUBED & EXP-1 PRIME   
1 37855U 11061F   17122.45999617  .00002529  00000-0  14001-3 0  9997
2 37855 101.7217 330.6548 0181260 216.5895 142.2822 15.02869000299453
HORYU 2                 
1 38340U 12025D   17122.91772701  .00000286  00000-0  50327-4 0  9992
2 38340  98.3766 125.2457 0013030  77.6965 282.5701 14.75312361256205
STRAND-1                
1 39090U 13009E   17122.48969737  .00000034  00000-0  27291-4 0  9992
2 39090  98.5584 328.3473 0010409  77.4377 282.7972 14.34961957218929
SOMP                    
1 39134U 13015E   17122.94887438  .00001436  00000-0  79961-4 0  9994
2 39134  64.8695  12.4617 0033749 280.3903  79.3420 15.17659152222230
BEESAT-2                
1 39136U 13015G   17122.95923018  .00001336  00000-0  80924-4 0  9992
2 39136  64.8714  22.4933 0030704 290.3722  69.4105 15.14971625222031
CUBEBUG-1 (CAPITAN BETO)
1 39153U 13018D   17122.79953435  .00000276  00000-0  43334-4 0  9998
2 39153  97.9843 215.3414 0016866 190.7548 169.3305 14.80155746216876
ZACUBE-1 (TSHEPISOSAT)  
1 39417U 13066B   17122.68083518  .00000288  00000-0  42831-4 0  9992
2 39417  97.6344 167.1184 0060708  59.7378 300.9825 14.80682140186047
TRITON-1                
1 39427U 13066M   17122.91428267  .00000252  00000-0  48086-4 0  9992
2 39427  97.6403 141.3012 0115626 133.2963 227.7957 14.67432972184216
GOMX 1                  
1 39430U 13066Q   17122.90380474  .00000226  00000-0  50104-4 0  9997
2 39430  97.6649 125.3956 0151812 185.4825 174.4721 14.58842673183145
HUMSAT-D                
1 39433U 13066T   17122.69875582  .00000494  00000-0  54595-4 0  9990
2 39433  97.6561 187.1569 0031354  11.4042 348.7880 14.91377458186050
EAGLE 2                 
1 39436U 13066W   17122.52885944  .00018925  00000-0  55437-3 0  9991
2 39436  97.7047 226.3439 0011187 237.9976 122.0179 15.35209276188493
CUBEBUG-2 (LO-74)       
1 39440U 13066AA  17122.67137005  .00000292  00000-0  47721-4 0  9996
2 39440  97.6330 156.6465 0082431  88.1994 272.8655 14.75423049184186
FUNCUBE-1 (AO-73)       
1 39444U 13066AE  17122.68288599  .00000372  00000-0  52645-4 0  9996
2 39444  97.6358 168.1159 0059828  56.7604 303.9324 14.81407906184282
UWE-3                   
1 39446U 13066AG  17122.58465000  .00000317  00000-0  48978-4 0  9994
2 39446  97.6325 161.5252 0072003  74.4736 286.4410 14.77955473184465
SPROUT                  
1 39770U 14029E   17122.85255331  .00001272  00000-0  15109-3 0  9998
2 39770  97.8697 222.6759 0010707 113.2966 246.9373 14.86159728159404
UNISAT-6                
1 40012U 14033C   17122.64109134  .00000270  00000-0  48018-4 0  9993
2 40012  97.8631   7.7884 0060151  80.7351 280.0654 14.73591772154230
DUCHIFAT-1              
1 40021U 14033M   17122.89737816  .00000603  00000-0  68600-4 0  9993
2 40021  97.9206  35.9933 0014649  89.9738 270.3158 14.89837701155850
FUNCUBE-3 (EO-79)       
1 40025U 14033R   17122.70003229  .00000387  00000-0  47807-4 0  9996
2 40025  97.9151  33.8623 0014069  93.9448 266.3377 14.88382439155215
CHUBUSAT-1              
1 40300U 14070C   17122.82715297  .00001154  00000-0  55344-4 0  9999
2 40300  97.3964 203.5504 0018962 260.2038 219.2991 15.20767164137893
NUDT-PHONESAT           
1 40900U 15049B   17122.92412753  .00002862  00000-0  13903-3 0  9995
2 40900  97.4442 131.4962 0014973  30.6720 329.5386 15.19164347 89580
ZDPS 2A                 
1 40901U 15049C   17122.96044055  .00001349  00000-0  73330-4 0  9996
2 40901  97.4589 131.0343 0014856  29.5973 330.6098 15.16115336 89482
ZDPS 2B                 
1 40902U 15049D   17122.95104723  .00001272  00000-0  69621-4 0  9998
2 40902  97.4458 129.7908 0014819  26.9435 333.2564 15.15954140 89471
XW-2A                   
1 40903U 15049E   17122.85678059  .00002635  00000-0  71263-4 0  9995
2 40903  97.4250 148.0001 0016718  71.5136 288.7924 15.38522207 90672
KAITUO 1A               
1 40904U 15049F   17122.90912981  .00000674  00000-0  40120-4 0  9996
2 40904  97.4544 129.4840 0015781  25.3752  34.4824 15.14450300 89393
2015-049G               
1 40905U 15049G   17122.91221502  .00000636  00000-0  39046-4 0  9993
2 40905  97.4513 128.3080 0016392  16.1074 344.0675 15.13484671 89355
XW-2C                   
1 40906U 15049H   17122.91631910  .00001008  00000-0  58273-4 0  9999
2 40906  97.4554 129.3139 0015756  17.8711 342.3071 15.14452158 89386
XW-2D                   
1 40907U 15049J   17122.90270987  .00001085  00000-0  62290-4 0  9991
2 40907  97.4523 129.0745 0015076  16.4596 343.7123 15.14549505 89380
LILACSAT 2              
1 40908U 15049K   17122.92100589  .00000565  00000-0  35546-4 0  9990
2 40908  97.4625 128.9104 0016526  13.4223 346.7445 15.13067563 89328
XW-2F                   
1 40910U 15049M   17122.93062262  .00001610  00000-0  88551-4 0  9995
2 40910  97.4545 129.7142 0015861  14.0562 346.1108 15.15390328 89428
XW-2B                   
1 40911U 15049N   17122.90770813  .00001051  00000-0  60491-4 0  9993
2 40911  97.4566 129.4323 0014978  16.8065 343.3660 15.14513813 89287
KAITUO 1B               
1 40912U 15049P   17122.91491069  .00002050  00000-0  10543-3 0  9990
2 40912  97.4512 131.4066 0015946   6.6337  58.4674 15.17476350 89423
